$$SOE
2460721.500000000, A.D. 2025-Feb-15 00:00:00.0000, -2.803948994385366E+08, -3.411172415955581E+08, 6.873694328513578E+07,
2460728.500000000, A.D. 2025-Feb-22 00:00:00.0000, -2.725400660719935E+08, -3.478105693355071E+08, 7.161652366815424E+07,
2460735.500000000, A.D. 2025-Mar-01 00:00:00.0000, -2.645377285972332E+08, -3.543157304804748E+08, 7.445734621725278E+07,
2460742.500000000, A.D. 2025-Mar-08 00:00:00.0000, -2.563929450941965E+08, -3.606301824142840E+08, 7.725807870784998E+07,
2460749.500000000, A.D. 2025-Mar-15 00:00:00.0000, -2.481108109444736E+08, -3.667515276635184E+08, 8.001742795954354E+07,
2460756.500000000, A.D. 2025-Mar-22 00:00:00.0000, -2.396964559553113E+08, -3.726775127298881E+08, 8.273414044361304E+07,
2460763.500000000, A.D. 2025-Mar-29 00:00:00.0000, -2.311550402236851E+08, -3.784060290036001E+08, 8.540700251726632E+07,
2460770.500000000, A.D. 2025-Apr-05 00:00:00.0000, -2.224917484228047E+08, -3.839351126296039E+08, 8.803484051370798E+07,
2460777.500000000, A.D. 2025-Apr-12 00:00:00.0000, -2.137117844437958E+08, -3.892629432313944E+08, 9.061652087544718E+07,
2460784.500000000, A.D. 2025-Apr-19 00:00:00.0000, -2.048203665854168E+08, -3.943878423815109E+08, 9.315095027793030E+07,
2460791.500000000, A.D. 2025-Apr-26 00:00:00.0000, -1.958227230247584E+08, -3.993082720291319E+08, 9.563707570361929E+07,
2460798.500000000, A.D. 2025-May-03 00:00:00.0000, -1.867240874587653E+08, -4.040228328728869E+08, 9.807388445906350E+07,
2460805.500000000, A.D. 2025-May-10 00:00:00.0000, -1.775296948904431E+08, -4.085302626777905E+08, 1.004604041344020E+08,
2460812.500000000, A.D. 2025-May-17 00:00:00.0000, -1.682447775245678E+08, -4.128294345855529E+08, 1.027957025000927E+08,
2460819.500000000, A.D. 2025-May-24 00:00:00.0000, -1.588745606000765E+08, -4.169193554818760E+08, 1.050788873224448E+08,
2460826.500000000, A.D. 2025-May-31 00:00:00.0000, -1.494242577426330E+08, -4.207991641194726E+08, 1.073091060876077E+08,
2460833.500000000, A.D. 2025-Jun-07 00:00:00.0000, -1.398990662398373E+08, -4.244681278012702E+08, 1.094855457720466E+08,
2460840.500000000, A.D. 2025-Jun-14 00:00:00.0000, -1.303041646046014E+08, -4.279256382986723E+08, 1.116074328243505E+08,
2460847.500000000, A.D. 2025-Jun-21 00:00:00.0000, -1.206447112097307E+08, -4.311712102841047E+08, 1.136740329817308E+08,
2460854.500000000, A.D. 2025-Jun-28 00:00:00.0000, -1.109258408651133E+08, -4.342044805218810E+08, 1.156846507813416E+08,
2460861.500000000, A.D. 2025-Jul-05 00:00:00.0000, -1.011526608540185E+08, -4.370252056690937E+08, 1.176386290847369E+08,
2460868.500000000, A.D. 2025-Jul-12 00:00:00.0000, -9.133024761885321E+07, -4.396332594989350E+08, 1.195353486614878E+08,
2460875.500000000, A.D. 2025-Jul-19 00:00:00.0000, -8.146364390561835E+07, -4.420286301280221E+08, 1.213742277698806E+08,
2460882.500000000, A.D. 2025-Jul-26 00:00:00.0000, -7.155785615543112E+07, -4.442114173104829E+08, 1.231547217129170E+08,
2460889.500000000, A.D. 2025-Aug-02 00:00:00.0000, -6.161785207550028E+07, -4.461818297832255E+08, 1.248763223674430E+08,
2460896.500000000, A.D. 2025-Aug-09 00:00:00.0000, -5.164855836359007E+07, -4.479401826830845E+08, 1.265385576852756E+08,
2460903.500000000, A.D. 2025-Aug-16 00:00:00.0000, -4.165485850643677E+07, -4.494868951049889E+08, 1.281409911564820E+08,
2460910.500000000, A.D. 2025-Aug-23 00:00:00.0000, -3.164159035690595E+07, -4.508224877902344E+08, 1.296832212117012E+08,
2460917.500000000, A.D. 2025-Aug-30 00:00:00.0000, -2.161354315831131E+07, -4.519475802359574E+08, 1.311648805939435E+08,
2460924.500000000, A.D. 2025-Sep-06 00:00:00.0000, -1.157545543127102E+07, -4.528628862299883E+08, 1.325856359136064E+08,
2460931.500000000, A.D. 2025-Sep-13 00:00:00.0000, -1.532015390518854E+06, -4.535692102975572E+08, 1.339451873384718E+08,
2460938.500000000, A.D. 2025-Sep-20 00:00:00.0000, 8.512139385695957E+06, -4.540674467082168E+08, 1.352432679856658E+08,
2460945.500000000, A.D. 2025-Sep-27 00:00:00.0000, 1.855242409609199E+07, -4.543585779361354E+08, 1.364796431749727E+08,
2460952.500000000, A.D. 2025-Oct-04 00:00:00.0000, 2.858430865342668E+07, -4.544436720387146E+08, 1.376541097746181E+08,
2460959.500000000, A.D. 2025-Oct-11 00:00:00.0000, 3.860331904790241E+07, -4.543238798998919E+08, 1.387664955983651E+08,
2460966.500000000, A.D. 2025-Oct-18 00:00:00.0000, 4.860503842411332E+07, -4.540004326153857E+08, 1.398166588068244E+08,
2460973.500000000, A.D. 2025-Oct-25 00:00:00.0000, 5.858510801472890E+07, -4.534746390113186E+08, 1.408044873021687E+08,
2460980.500000000, A.D. 2025-Nov-01 00:00:00.0000, 6.853922797423977E+07, -4.527478832828386E+08, 1.417298981148160E+08,
2460987.500000000, A.D. 2025-Nov-08 00:00:00.0000, 7.846315815144061E+07, -4.518216227861660E+08, 1.425928367772892E+08,
2460994.500000000, A.D. 2025-Nov-15 00:00:00.0000, 8.835271895265378E+07, -4.506973860447208E+08, 1.433932766680360E+08,
2461001.500000000, A.D. 2025-Nov-22 00:00:00.0000, 9.820379270228235E+07, -4.493767707513759E+08, 1.441312183075221E+08,
2461008.500000000, A.D. 2025-Nov-29 00:00:00.0000, 1.080123253509896E+08, -4.478614406338216E+08, 1.448066887145957E+08,
2461015.500000000, A.D. 2025-Dec-06 00:00:00.0000, 1.177743262572334E+08, -4.461531213203400E+08, 1.454197410216443E+08,
2461022.500000000, A.D. 2025-Dec-13 00:00:00.0000, 1.274858664792504E+08, -4.442535985767692E+08, 1.459704540336012E+08,
2461029.500000000, A.D. 2025-Dec-20 00:00:00.0000, 1.371430790746918E+08, -4.421647178923023E+08, 1.464589314946714E+08,
2461036.500000000, A.D. 2025-Dec-27 00:00:00.0000, 1.467421603376561E+08, -4.398883828241355E+08, 1.468853013741454E+08,
2461043.500000000, A.D. 2026-Jan-03 00:00:00.0000, 1.562793705167042E+08, -4.374265527171409E+08, 1.472497152555791E+08,
2461050.500000000, A.D. 2026-Jan-10 00:00:00.0000, 1.657510341262532E+08, -4.347812404771038E+08, 1.475523477639814E+08,
2461057.500000000, A.D. 2026-Jan-17 00:00:00.0000, 1.751535400868034E+08, -4.319545104880224E+08, 1.477933960020484E+08,
2461064.500000000, A.D. 2026-Jan-24 00:00:00.0000, 1.844833417753457E+08, -4.289484766494045E+08, 1.479730789899780E+08,
2461071.500000000, A.D. 2026-Jan-31 00:00:00.0000, 1.937369570133360E+08, -4.257653005396639E+08, 1.480916371062371E+08,
2461078.500000000, A.D. 2026-Feb-07 00:00:00.0000, 2.029109680579749E+08, -4.224071897621061E+08, 1.481493315196359E+08,
2461085.500000000, A.D. 2026-Feb-14 00:00:00.0000, 2.120020218538926E+08, -4.188763964886001E+08, 1.481464435894925E+08,
2461092.500000000, A.D. 2026-Feb-21 00:00:00.0000, 2.210068309361913E+08, -4.151752156242598E+08, 1.480832742469953E+08,
2461099.500000000, A.D. 2026-Feb-28 00:00:00.0000, 2.299221739024444E+08, -4.113059814401457E+08, 1.479601435527204E+08,
2461106.500000000, A.D. 2026-Mar-07 00:00:00.0000, 2.387448933967527E+08, -4.072710646236880E+08, 1.477773904600011E+08,
2461113.500000000, A.D. 2026-Mar-14 00:00:00.0000, 2.474718943835412E+08, -4.030728720782914E+08, 1.475353723384900E+08,
2461120.500000000, A.D. 2026-Mar-21 00:00:00.0000, 2.561001444968117E+08, -3.987138465731792E+08, 1.472344643312322E+08,
2461127.500000000, A.D. 2026-Mar-28 00:00:00.0000, 2.646266744582017E+08, -3.941964652144960E+08, 1.468750588140469E+08,
2461134.500000000, A.D. 2026-Apr-04 00:00:00.0000, 2.730485779624797E+08, -3.895232377028871E+08, 1.464575649339931E+08,
2461141.500000000, A.D. 2026-Apr-11 00:00:00.0000, 2.813630113066341E+08, -3.846967047368909E+08, 1.459824081726010E+08,
2461148.500000000, A.D. 2026-Apr-18 00:00:00.0000, 2.895671929240851E+08, -3.797194365681615E+08, 1.454500299189172E+08,
2461155.500000000, A.D. 2026-Apr-25 00:00:00.0000, 2.976584028720635E+08, -3.745940316930879E+08, 1.448608870495004E+08,
2461162.500000000, A.D. 2026-May-02 00:00:00.0000, 3.056339823050178E+08, -3.693231157095230E+08, 1.442154515101224E+08,
2461169.500000000, A.D. 2026-May-09 00:00:00.0000, 3.134913330609204E+08, -3.639093404036763E+08, 1.435142098822283E+08,
2461176.500000000, A.D. 2026-May-16 00:00:00.0000, 3.212279177409895E+08, -3.583553829276412E+08, 1.427576629108602E+08,
2461183.500000000, A.D. 2026-May-23 00:00:00.0000, 3.288412603373349E+08, -3.526639440445086E+08, 1.419463250732926E+08,
2461190.500000000, A.D. 2026-May-30 00:00:00.0000, 3.363289453321161E+08, -3.468377451213738E+08, 1.410807244055478E+08,
2461197.500000000, A.D. 2026-Jun-06 00:00:00.0000, 3.436886149519451E+08, -3.408795271430614E+08, 1.401614023479770E+08,
2461204.500000000, A.D. 2026-Jun-13 00:00:00.0000, 3.509179682447061E+08, -3.347920515459164E+08, 1.391889132891383E+08,
2461211.500000000, A.D. 2026-Jun-20 00:00:00.0000, 3.580147614797026E+08, -3.285780999442312E+08, 1.381638240927936E+08,
2461218.500000000, A.D. 2026-Jun-27 00:00:00.0000, 3.649768081745958E+08, -3.222404730884336E+08, 1.370867137359629E+08,
2461225.500000000, A.D. 2026-Jul-04 00:00:00.0000, 3.718019787504942E+08, -3.157819898291644E+08, 1.359581729944944E+08,
2461232.500000000, A.D. 2026-Jul-11 00:00:00.0000, 3.784882000704546E+08, -3.092054862182777E+08, 1.347788041417647E+08,
2461239.500000000, A.D. 2026-Jul-18 00:00:00.0000, 3.850334549553530E+08, -3.025138147201651E+08, 1.335492206537797E+08,
2461246.500000000, A.D. 2026-Jul-25 00:00:00.0000, 3.914357817026341E+08, -2.957098435298491E+08, 1.322700469182952E+08,
2461253.500000000, A.D. 2026-Aug-01 00:00:00.0000, 3.976932736568488E+08, -2.887964560450282E+08, 1.309419179391229E+08,
2461260.500000000, A.D. 2026-Aug-08 00:00:00.0000, 4.038040790475081E+08, -2.817765505266753E+08, 1.295654790123706E+08,
2461267.500000000, A.D. 2026-Aug-15 00:00:00.0000, 4.097664015102742E+08, -2.746530394962343E+08, 1.281413853729486E+08,
2461274.500000000, A.D. 2026-Aug-22 00:00:00.0000, 4.155785005319195E+08, -2.674288476470694E+08, 1.266703019811023E+08,
2461281.500000000, A.D. 2026-Aug-29 00:00:00.0000, 4.212386895309478E+08, -2.601069096426808E+08, 1.251529035469165E+08,
2461288.500000000, A.D. 2026-Sep-05 00:00:00.0000, 4.267453337072296E+08, -2.526901706689782E+08, 1.235898743620529E+08,
$$EOE